[{"OBJECT_NAME":"SATELIOT_3","OBJECT_ID":"2024-149CN","EPOCH":"2026-03-09T19:09:09.165600","MEAN_MOTION":14.97601684,"ECCENTRICITY":0.00058308,"INCLINATION":97.6866,"RA_OF_ASC_NODE":147.0596,"ARG_OF_PERICENTER":63.3535,"MEAN_ANOMALY":296.8284,"EPHEMERIS_TYPE":0,"CLASSIFICATION_TYPE":"U","NORAD_CAT_ID":60552,"ELEMENT_SET_NO":999,"REV_AT_EPOCH":8520,"BSTAR":0.00025002978,"MEAN_MOTION_DOT":2.865e-5,"MEAN_MOTION_DDOT":0},{"OBJECT_NAME":"STARLINK-35966","OBJECT_ID":"2025-280A","EPOCH":"2026-03-09T23:21:18.593568","MEAN_MOTION":14.98332696,"ECCENTRICITY":0.00028489,"INCLINATION":70.0017,"RA_OF_ASC_NODE":333.9298,"ARG_OF_PERICENTER":271.3712,"MEAN_ANOMALY":88.7121,"EPHEMERIS_TYPE":0,"CLASSIFICATION_TYPE":"U","NORAD_CAT_ID":66821,"ELEMENT_SET_NO":999,"REV_AT_EPOCH":1611,"BSTAR":0.00025589932,"MEAN_MOTION_DOT":2.962e-5,"MEAN_MOTION_DDOT":0}]
